[{"OBJECT_NAME":"STARLINK-3143","OBJECT_ID":"2021-115Q","EPOCH":"2026-03-09T11:59:14.120736","MEAN_MOTION":15.08834226,"ECCENTRICITY":0.00014039,"INCLINATION":53.2163,"RA_OF_ASC_NODE":150.1795,"ARG_OF_PERICENTER":77.1167,"MEAN_ANOMALY":282.9982,"EPHEMERIS_TYPE":0,"CLASSIFICATION_TYPE":"U","NORAD_CAT_ID":49738,"ELEMENT_SET_NO":999,"REV_AT_EPOCH":23550,"BSTAR":6.7137927e-5,"MEAN_MOTION_DOT":7.81e-6,"MEAN_MOTION_DDOT":0},{"OBJECT_NAME":"FENGYUN 1C DEB","OBJECT_ID":"1999-025AMC","EPOCH":"2026-03-09T19:39:36.291456","MEAN_MOTION":15.06799557,"ECCENTRICITY":0.00299661,"INCLINATION":98.9468,"RA_OF_ASC_NODE":22.995,"ARG_OF_PERICENTER":242.9892,"MEAN_ANOMALY":116.8272,"EPHEMERIS_TYPE":0,"CLASSIFICATION_TYPE":"U","NORAD_CAT_ID":30597,"ELEMENT_SET_NO":999,"REV_AT_EPOCH":99841,"BSTAR":0.005730905,"MEAN_MOTION_DOT":0.00087128,"MEAN_MOTION_DDOT":0}]
